OBJECT_NAME,OBJECT_ID,EPOCH,MEAN_MOTION,ECCENTRICITY,INCLINATION,RA_OF_ASC_NODE,ARG_OF_PERICENTER,MEAN_ANOMALY,EPHEMERIS_TYPE,CLASSIFICATION_TYPE,NORAD_CAT_ID,ELEMENT_SET_NO,REV_AT_EPOCH,BSTAR,MEAN_MOTION_DOT,MEAN_MOTION_DDOT
YUNHAI-2 02E,2024-052E,2026-06-16T06:53:40.542720,14.27964357,.00118483,50.0117,326.6023,56.1051,304.0989,0,U,59284,999,10680,.47690052E-4,-.42E-6,0
YUNHAI-2 02F,2024-052F,2026-06-16T05:48:43.511328,14.27989466,.00052913,50.0092,206.9570,180.0265,180.0650,0,U,59285,999,11902,.38449228E-4,-.65E-6,0
MOLA,2024-053B,2026-06-15T16:13:15.130848,15.59255669,.00038899,49.9868,302.1106,294.6483,65.4082,0,U,59289,999,12126,.50388526E-3,.4014E-3,0
AEROCUBE 16A,2024-053C,2026-06-15T17:52:02.599392,15.43800291,.00029865,49.9901,332.0653,312.6513,47.4199,0,U,59290,999,12088,.31051594E-3,.13926E-3,0
AEROCUBE 16B,2024-053D,2026-06-15T18:00:45.289152,15.43779316,.00029685,49.9927,332.2509,308.7657,51.3041,0,U,59291,999,12096,.31079924E-3,.13929E-3,0
STARLINK-31463,2024-056A,2026-06-15T17:27:42.099840,15.27570753,.00012279,43.0026,33.1018,267.4023,92.6688,0,U,59296,999,12619,.7367362E-5,-.59E-6,0
STARLINK-31487,2024-056B,2026-06-15T21:53:02.190624,15.27572507,.0002374,43.0143,36.2250,284.6055,75.4534,0,U,59297,999,12629,.72499E-5,-.63E-6,0
STARLINK-31386,2024-056C,2026-06-15T08:53:51.886752,15.27584409,.000105,43.0074,39.0333,250.5218,109.5520,0,U,59298,999,12609,.15435538E-3,.3988E-4,0
STARLINK-31409,2024-056D,2026-06-14T21:59:51.775872,15.27580673,.0001156,43.0057,34.7285,280.5978,79.4744,0,U,59299,999,12622,.41994E-4,.894E-5,0
STARLINK-31489,2024-056E,2026-06-16T01:47:23.093376,15.27585995,.00014557,43.0029,34.8609,265.1515,94.9170,0,U,59300,999,12620,.45748644E-3,.1235E-3,0
STARLINK-31502,2024-056F,2026-06-15T08:21:57.469248,15.27569856,.00007902,42.9947,31.9426,259.1719,100.9044,0,U,59301,999,12617,-.20560788E-4,-.827E-5,0
STARLINK-31447,2024-056G,2026-06-15T08:57:33.318720,15.27583011,.00013546,43.0032,39.0549,268.9026,91.1670,0,U,59302,999,12609,.2726419E-4,.488E-5,0
STARLINK-31504,2024-056H,2026-06-15T21:41:55.256064,15.27577658,.000134,43.0034,36.1581,245.5152,114.5560,0,U,59303,999,12617,.22639E-4,.361E-5,0
STARLINK-31474,2024-056J,2026-06-16T07:04:33.519360,15.27569440,.00012562,43.0045,27.0074,266.5415,93.5293,0,U,59304,999,12631,.74679989E-4,.1793E-4,0
STARLINK-31500,2024-056K,2026-06-15T21:36:22.630752,15.27573416,.0000793,42.9975,36.1274,238.6147,121.4627,0,U,59305,999,12617,.12198E-4,.74E-6,0
STARLINK-31480,2024-056L,2026-06-15T08:42:45.884448,15.27571825,.00013432,43.0045,38.9794,274.8029,85.2669,0,U,59306,999,12609,.47303069E-4,.1039E-4,0
STARLINK-31282,2024-056M,2026-06-15T21:47:28.646016,15.27575763,.0002174,43.0131,36.1931,286.3255,73.7358,0,U,59307,999,12617,.12759E-4,.88E-6,0
STARLINK-31485,2024-056N,2026-06-14T22:26:14.110656,15.27572467,.0001273,43.0070,41.7830,261.9892,98.0815,0,U,59308,999,12602,-.57598E-5,-.421E-5,0
STARLINK-31455,2024-056P,2026-06-14T22:26:56.203872,15.27575093,.0002099,42.9949,38.3265,275.5211,84.5401,0,U,59309,999,12606,.21444E-4,.328E-5,0
STARLINK-31475,2024-056Q,2026-06-16T07:20:30.785568,15.27579912,.00011257,43.0024,30.5570,277.1332,82.9391,0,U,59310,999,12639,.9250875E-5,-.7E-7,0
STARLINK-31445,2024-056S,2026-06-15T09:14:40.469568,15.27581264,.00000673,42.9913,46.0651,310.7969,49.2877,0,U,59312,999,12601,.45927493E-4,.1003E-4,0
STARLINK-31495,2024-056T,2026-06-16T08:00:01.999872,15.34718965,.00095815,42.9987,24.9397,258.6692,359.4401,0,U,59313,999,583,.11363022E-2,.39041E-3,0
STARLINK-31477,2024-056U,2026-06-15T21:59:45.064320,15.27576127,.0001208,43.0035,28.4681,274.1293,85.9421,0,U,59314,999,12626,.81715E-5,-.37E-6,0
STARLINK-31446,2024-056V,2026-06-15T22:33:31.749120,15.27578709,.0000769,42.9929,35.5642,300.6851,59.3925,0,U,59315,999,12618,-.68212E-4,-.2138E-4,0
STARLINK-31479,2024-056W,2026-06-14T23:04:23.479104,15.27574679,.0001505,43.0016,45.4407,284.4820,75.5865,0,U,59316,999,12598,-.7847E-5,-.478E-5,0
STARLINK-31349,2024-056X,2026-06-15T08:48:18.846720,15.27574751,.00020898,43.0192,39.0041,269.3614,90.6998,0,U,59317,999,12616,-.340881E-6,-.272E-5,0
STARLINK-31464,2024-056Y,2026-06-14T09:04:50.583936,15.27582865,.00009028,42.9926,44.4845,291.2498,68.8257,0,U,59318,999,12594,.35010127E-4,.702E-5,0
STARLINK-31402,2024-057A,2026-06-16T02:10:37.257600,15.30910874,.00056294,42.9985,303.3921,323.3407,36.7060,0,U,59320,999,12542,.17019989E-2,.52011E-3,0
STARLINK-31578,2024-057B,2026-06-16T05:21:56.832480,15.27576013,.00006089,43.0144,350.1678,280.4574,79.6209,0,U,59321,999,12491,.7359212E-5,-.6E-6,0
STARLINK-31530,2024-057C,2026-06-16T03:04:51.019392,15.69039117,.00272908,42.9906,324.9465,315.4738,44.3936,0,U,59322,999,12519,.63974808E-3,.78045E-3,0
STARLINK-31565,2024-057D,2026-06-16T05:55:55.666848,15.27570380,.00008991,43.0008,358.1347,272.6208,87.4540,0,U,59323,999,12482,-.19882437E-4,-.809E-5,0
STARLINK-31570,2024-057E,2026-06-16T05:18:26.896896,15.27577599,.00012404,43.0033,351.0133,274.0387,86.0323,0,U,59324,999,12490,-.8502103E-5,-.496E-5,0
STARLINK-31611,2024-057F,2026-06-16T05:20:18.127392,15.27574978,.00014509,43.0246,351.0246,273.3919,86.6767,0,U,59325,999,12490,-.1422926E-5,-.302E-5,0
STARLINK-31632,2024-057G,2026-06-16T06:10:01.437312,15.27576243,.00007235,42.9983,1.6686,273.6041,86.4728,0,U,59326,999,12478,.1340336E-4,.107E-5,0
STARLINK-31599,2024-057H,2026-06-16T05:45:58.970304,15.27593160,.00015683,43.0024,350.2994,281.3673,78.7002,0,U,59327,999,12491,.15816279E-4,.173E-5,0
STARLINK-31614,2024-057J,2026-06-15T19:22:03.283680,15.27577344,.00006274,43.0014,353.0684,251.9896,108.0887,0,U,59328,999,12484,.1396088E-4,.122E-5,0
STARLINK-31493,2024-057K,2026-06-15T18:58:00.427872,15.27571575,.00009946,42.9989,352.9352,257.5856,102.4884,0,U,59329,999,12484,-.9540582E-5,-.524E-5,0
STARLINK-31634,2024-057L,2026-06-16T04:59:56.941152,15.27573357,.00012342,43.0018,350.9119,274.3787,85.6924,0,U,59330,999,12490,.3266094E-5,-.172E-5,0
STARLINK-31633,2024-057M,2026-06-16T04:56:14.720352,15.27568877,.00018013,42.9969,350.8905,279.1808,80.8840,0,U,59331,999,12490,.11566359E-3,.2921E-4,0
STARLINK-31594,2024-057N,2026-06-16T06:15:34.618176,15.27577447,.00013161,43.0046,1.6967,277.5012,82.5690,0,U,59332,999,12478,.48835022E-4,.1082E-4,0
STARLINK-31572,2024-057P,2026-06-16T06:19:15.068640,15.27584060,.0003547,43.0261,1.7116,267.4165,92.6281,0,U,59333,999,12478,.45339131E-4,.985E-5,0
STARLINK-31573,2024-057Q,2026-06-16T05:23:47.479776,15.27575435,.00014209,43.0196,350.1745,268.5370,91.5320,0,U,59334,999,12491,.1083074E-5,-.233E-5,0
STARLINK-31588,2024-057R,2026-06-16T05:33:02.248128,15.27578292,.0001738,43.0046,350.2225,256.7952,103.2706,0,U,59335,999,12491,.19889968E-4,.285E-5,0
STARLINK-31596,2024-057S,2026-06-16T05:38:35.391840,15.27577775,.00023607,43.0085,350.2527,260.6110,99.4475,0,U,59336,999,12491,.24717161E-4,.418E-5,0
STARLINK-31612,2024-057T,2026-06-15T19:12:48.506688,15.27572653,.00013096,43.0079,353.0155,261.0540,99.0164,0,U,59337,999,12484,-.10682977E-4,-.556E-5,0
STARLINK-31550,2024-057U,2026-06-15T19:49:49.056672,15.27566949,.00018303,42.9954,353.2040,276.9994,83.0649,0,U,59338,999,12484,-.26763954E-4,-.998E-5,0
STARLINK-31473,2024-057V,2026-06-15T18:56:09.231936,15.27574987,.00019089,42.9994,352.9237,265.6714,94.3920,0,U,59339,999,12484,.14717521E-4,.143E-5,0
STARLINK-31562,2024-057W,2026-06-16T06:38:55.606272,15.27579212,.00016347,43.0051,5.2886,260.1902,99.8766,0,U,59340,999,12474,.32873811E-4,.642E-5,0
STARLINK-31600,2024-057X,2026-06-16T06:01:28.024320,15.27574895,.00010993,43.0021,358.1600,269.0577,91.0149,0,U,59341,999,12482,.1867771E-5,-.211E-5,0
STARLINK-31628,2024-057Y,2026-06-16T04:50:40.954560,15.27588858,.00021379,42.9992,350.8626,274.8281,85.2326,0,U,59342,999,12490,.75508193E-4,.1817E-4,0
YUNHAI-3 02,2024-058A,2026-06-16T08:08:49.832160,14.13326688,.00016763,98.8193,175.2047,60.8467,299.2873,0,U,59343,999,11462,.11535844E-4,-.22E-6,0
EUTELSAT 36D,2024-059A,2026-06-16T02:55:07.715712,1.00269745,.00002296,0.0181,23.6126,194.9162,125.5303,0,U,59346,999,813,0,.156E-5,0
STARLINK-31605,2024-060A,2026-06-15T10:13:45.085728,15.27580019,.0001899,43.0049,57.2237,241.3666,118.6995,0,U,59348,999,12507,.28800563E-4,.53E-5,0
STARLINK-31532,2024-060B,2026-06-13T11:40:16.933440,15.27574826,.00002659,43.0060,78.8525,289.3032,70.7791,0,U,59349,999,12476,-.2163644E-5,-.321E-5,0
STARLINK-31593,2024-060C,2026-06-16T00:09:52.376544,15.27542213,.00018612,42.9951,64.2291,277.9112,82.1528,0,U,59350,999,12510,-.13495066E-3,-.397E-4,0
STARLINK-31555,2024-060D,2026-06-15T10:56:03.911712,15.27589255,.00011127,43.0036,67.8341,279.3687,80.7039,0,U,59351,999,12506,.43005837E-4,.922E-5,0
STARLINK-31561,2024-060E,2026-06-15T00:33:47.749248,15.27554191,.00024066,42.9876,69.7460,282.6756,77.3826,0,U,59352,999,12495,-.13593531E-3,-.3998E-4,0
STARLINK-31413,2024-060F,2026-06-16T00:26:27.330432,15.27596703,.00007316,43.0022,64.3199,290.4678,69.6095,0,U,59353,999,12510,.90525836E-4,.2231E-4,0
STARLINK-31422,2024-060G,2026-06-14T10:21:02.202336,15.27571373,.00012023,43.0008,73.9029,274.4742,85.5972,0,U,59354,999,12485,-.14029672E-4,-.648E-5,0
STARLINK-31416,2024-060H,2026-06-15T10:50:32.374176,15.27572822,.00017456,42.9826,67.7987,120.4461,239.6563,0,U,59355,999,12501,.2279057E-4,.365E-5,0
STARLINK-31552,2024-060J,2026-06-15T23:55:14.249280,15.27579123,.00008313,43.0074,65.0279,263.2667,96.8090,0,U,59356,999,12509,.6975241E-5,-.7E-6,0
STARLINK-31557,2024-060K,2026-06-15T23:46:27.754464,15.27579793,.00010751,43.0037,60.6115,248.2706,111.8032,0,U,59357,999,12514,.11522904E-3,.291E-4,0
STARLINK-31559,2024-060L,2026-06-16T00:37:33.691296,15.27579003,.00029278,43.0095,64.3760,278.4563,81.5957,0,U,59358,999,12510,.14434943E-4,.134E-5,0
STARLINK-31501,2024-060M,2026-06-15T23:44:06.671040,15.27586034,.00016055,43.0032,64.9585,269.4866,90.5802,0,U,59359,999,12509,.53624296E-4,.1214E-4,0
